[{"OBJECT_NAME":"STARLINK-32926","OBJECT_ID":"2025-032W","EPOCH":"2026-03-09T19:42:56.227968","MEAN_MOTION":15.27624608,"ECCENTRICITY":0.00018345,"INCLINATION":43.0004,"RA_OF_ASC_NODE":335.002,"ARG_OF_PERICENTER":348.5664,"MEAN_ANOMALY":11.5146,"EPHEMERIS_TYPE":0,"CLASSIFICATION_TYPE":"U","NORAD_CAT_ID":63025,"ELEMENT_SET_NO":999,"REV_AT_EPOCH":6064,"BSTAR":0.0014343695,"MEAN_MOTION_DOT":0.00039474,"MEAN_MOTION_DDOT":0},{"OBJECT_NAME":"REAL","OBJECT_ID":"2025-154G","EPOCH":"2026-03-09T17:20:09.670560","MEAN_MOTION":15.28408058,"ECCENTRICITY":0.00018528,"INCLINATION":97.4133,"RA_OF_ASC_NODE":137.2581,"ARG_OF_PERICENTER":118.5876,"MEAN_ANOMALY":241.555,"EPHEMERIS_TYPE":0,"CLASSIFICATION_TYPE":"U","NORAD_CAT_ID":64875,"ELEMENT_SET_NO":999,"REV_AT_EPOCH":3483,"BSTAR":0.0008290401,"MEAN_MOTION_DOT":0.00022901,"MEAN_MOTION_DDOT":0}]
