STARLINK-32926          
1 63025U 25032W   26068.82148411  .00039474  00000+0  14344-2 0  9993
2 63025  43.0004 335.0020 0001834 348.5664  11.5146 15.27624607 60648
REAL                    
1 64875U 25154G   26068.72233414  .00022901  00000+0  82904-3 0  9994
2 64875  97.4133 137.2581 0001853 118.5876 241.5550 15.28408058 34830
